H1 CPF 01  gfz 2021 04 19 00  6083 terrasarx 
H2 0702601  6201 31698    2021 04 18 12 59 42 2021 04 23 00 00 42   120 1 1  0 0 0
H9
10 0 59325  85662.000000  0     957601.396  -1360578.616  -6691366.144
10 0 59325  85782.000000  0     958398.189  -2246135.398  -6448081.125
10 0 59325  85902.000000  0     927434.205  -3092507.020  -6092265.353
10 0 59325  86022.000000  0     866053.854  -3884444.912  -5630053.762
10 0 59325  86142.000000  0     776385.795  -4607643.830  -5069432.714
10 0 59325  86262.000000  0     661290.270  -5249002.049  -4420113.269
10 0 59325  86382.000000  0     524288.760  -5796865.516  -3693374.359
10 0 59326    102.000000  0     369477.590  -6241249.426  -2901875.413
10 0 59326    222.000000  0     201427.321  -6574031.801  -2059442.234
10 0 59326    342.000000  0      25069.973  -6789115.541  -1180827.892
10 0 59326    462.000000  0    -154423.788  -6882552.143   -281452.027
10 0 59326    582.000000  0    -331774.292  -6852623.364    622874.794
10 0 59326    702.000000  0    -501726.150  -6699879.483   1516235.787
10 0 59326    822.000000  0    -659181.843  -6427132.625   2382897.166
10 0 59326    942.000000  0    -799331.999  -6039403.563   3207595.029
10 0 59326   1062.000000  0    -917777.750  -5543822.371   3975812.486
10 0 59326   1182.000000  0   -1010644.073  -4949488.221   4674038.793
10 0 59326   1302.000000  0   -1074680.663  -4267292.995   5290008.254
10 0 59326   1422.000000  0   -1107347.292  -3509712.602   5812915.397
10 0 59326   1542.000000  0   -1106882.885  -2690568.379   6233601.783
10 0 59326   1662.000000  0   -1072355.435  -1824766.953   6544708.981
10 0 59326   1782.000000  0   -1003693.126   -928026.066   6740800.603
10 0 59326   1902.000000  0    -901697.091    -16587.199   6818452.665
10 0 59326   2022.000000  0    -768034.637    893078.929   6776309.500
10 0 59326   2142.000000  0    -605211.756   1784569.538   6615106.348
10 0 59326   2262.000000  0    -416526.116   2641845.107   6337657.225
10 0 59326   2382.000000  0    -206001.595   3449517.863   5948808.861
10 0 59326   2502.000000  0      21694.158   4193129.989   5455361.128
10 0 59326   2622.000000  0     261348.442   4859416.218   4865953.917
10 0 59326   2742.000000  0     507317.313   5436547.924   4190922.356
10 0 59326   2862.000000  0     753650.880   5914350.432   3442117.911
10 0 59326   2982.000000  0     994228.257   6284491.775   2632707.225
10 0 59326   3102.000000  0    1222901.854   6540643.095   1776937.287
10 0 59326   3222.000000  0    1433642.607   6678592.389    889878.865
10 0 59326   3342.000000  0    1620685.483   6696318.897    -12845.974
10 0 59326   3462.000000  0    1778670.863   6594022.417   -915347.078
10 0 59326   3582.000000  0    1902777.608   6374108.498  -1801753.907
10 0 59326   3702.000000  0    1988845.299   6041130.380  -2656501.861
10 0 59326   3822.000000  0    2033482.416   5601688.642  -3464611.678
10 0 59326   3942.000000  0    2034157.771   5064290.798  -4211955.716
10 0 59326   4062.000000  0    1989272.852   4439174.541  -4885504.366
10 0 59326   4182.000000  0    1898213.534   3738101.463  -5473547.924
10 0 59326   4302.000000  0    1761381.310   2974127.108  -5965891.927
10 0 59326   4422.000000  0    1580202.587   2161351.183  -6354023.933
10 0 59326   4542.000000  0    1357116.904   1314654.541  -6631248.501
10 0 59326   4662.000000  0    1095545.383    449428.331  -6792792.310
10 0 59326   4782.000000  0     799838.210   -418702.233  -6835878.101
10 0 59326   4902.000000  0     475202.646  -1274154.724  -6759766.218
10 0 59326   5022.000000  0     127613.359  -2101661.552  -6565764.375
10 0 59326   5142.000000  0    -236293.849  -2886534.626  -6257208.828
10 0 59326   5262.000000  0    -609345.249  -3614922.806  -5839414.374
10 0 59326   5382.000000  0    -983965.743  -4274054.533  -5319591.275
10 0 59326   5502.000000  0   -1352327.513  -4852463.741  -4706732.730
10 0 59326   5622.000000  0   -1706509.158  -5340195.620  -4011470.714
10 0 59326   5742.000000  0   -2038661.989  -5728986.814  -3245901.170
10 0 59326   5862.000000  0   -2341179.700  -6012415.904  -2423380.998
10 0 59326   5982.000000  0   -2606867.946  -6186021.096  -1558299.500
10 0 59326   6102.000000  0   -2829109.870  -6247381.772   -665826.816
10 0 59326   6222.000000  0   -3002023.194  -6196159.798    238356.518
10 0 59326   6342.000000  0   -3120604.110  -6034098.349   1138342.165
10 0 59326   6462.000000  0   -3180854.441  -5764978.922   2018282.573
10 0 59326   6582.000000  0   -3179888.557  -5394536.556   2862679.328
10 0 59326   6702.000000  0   -3116017.089  -4930335.991   3656663.938
10 0 59326   6822.000000  0   -2988805.453  -4381612.604   4386265.491
10 0 59326   6942.000000  0   -2799106.454  -3759081.794   5038659.670
10 0 59326   7062.000000  0   -2549066.371  -3074721.719   5602394.424
10 0 59326   7182.000000  0   -2242103.244  -2341535.344   6067587.997
10 0 59326   7302.000000  0   -1882859.588  -1573298.573   6426097.402
10 0 59326   7422.000000  0   -1477129.802   -784297.489   6671656.633
10 0 59326   7542.000000  0   -1031764.076     10940.975   6799978.881
10 0 59326   7662.000000  0    -554552.709    797915.524   6808825.142
10 0 59326   7782.000000  0     -54090.064   1562414.098   6698041.872
10 0 59326   7902.000000  0     460380.101   2290770.368   6469563.691
10 0 59326   8022.000000  0     979135.000   2970107.893   6127381.154
10 0 59326   8142.000000  0    1492155.442   3588568.342   5677475.584
10 0 59326   8262.000000  0    1989318.317   4135521.879   5127720.539
10 0 59326   8382.000000  0    2460596.656   4601755.388   4487750.357
10 0 59326   8502.000000  0    2896262.973   4979633.789   3768795.487
10 0 59326   8622.000000  0    3287090.206   5263231.045   2983489.789
10 0 59326   8742.000000  0    3624549.736   5448432.522   2145650.341
10 0 59326   8862.000000  0    3900998.538   5532998.339   1270028.697
10 0 59326   8982.000000  0    4109848.901   5516589.338    372046.529
10 0 59326   9102.000000  0    4245719.706   5400755.030   -532485.055
10 0 59326   9222.000000  0    4304563.799   5188881.249  -1427652.085
10 0 59326   9342.000000  0    4283769.147   4886102.399  -2297725.535
10 0 59326   9462.000000  0    4182230.274   4499179.180  -3127444.600
10 0 59326   9582.000000  0    4000388.170   4036345.147  -3902289.225
10 0 59326   9702.000000  0    3740238.649   3507126.086  -4608734.333
10 0 59326   9822.000000  0    3405310.906   2922138.667  -5234482.726
10 0 59326   9942.000000  0    3000615.194   2292872.377  -5768673.011
10 0 59326  10062.000000  0    2532562.446   1631460.342  -6202058.679
10 0 59326  10182.000000  0    2008857.825    950443.856  -6527156.859
10 0 59326  10302.000000  0    1438371.426    262536.293  -6738365.011
10 0 59326  10422.000000  0     830988.828   -419609.881  -6832048.716
10 0 59326  10542.000000  0     197440.578  -1083631.630  -6806597.706
10 0 59326  10662.000000  0    -450883.316  -1717673.458  -6662448.612
10 0 59326  10782.000000  0   -1102132.421  -2310592.952  -6402078.969
10 0 59326  10902.000000  0   -1744207.668  -2852153.524  -6029970.039
10 0 59326  11022.000000  0   -2364980.841  -3333199.458  -5552537.154
10 0 59326  11142.000000  0   -2952519.842  -3745811.666  -4978030.851
10 0 59326  11262.000000  0   -3495317.942  -4083442.730  -4316406.304
10 0 59326  11382.000000  0   -3982520.612  -4341026.362  -3579160.747
10 0 59326  11502.000000  0   -4404145.597  -4515059.585  -2779142.482
10 0 59326  11622.000000  0   -4751292.056  -4603655.449  -1930332.259
10 0 59326  11742.000000  0   -5016333.009  -4606563.994  -1047600.645
10 0 59326  11862.000000  0   -5193086.063  -4525160.711   -146445.574
10 0 59326  11982.000000  0   -5276958.097  -4362402.552    757285.001
10 0 59326  12102.000000  0   -5265059.055  -4122751.279   1647680.558
10 0 59326  12222.000000  0   -5156280.861  -3812065.157   2509057.896
10 0 59326  12342.000000  0   -4951340.010  -3437462.536   3326245.930
10 0 59326  12462.000000  0   -4652783.199  -3007161.506   4084859.733
10 0 59326  12582.000000  0   -4264955.483  -2530299.011   4771558.943
10 0 59326  12702.000000  0   -3793931.795  -2016734.400   5374282.811
10 0 59326  12822.000000  0   -3247416.323  -1476844.067   5882459.394
10 0 59326  12942.000000  0   -2634610.967   -921310.403   6287188.303
10 0 59326  13062.000000  0   -1966053.874   -360908.059   6581392.177
10 0 59326  13182.000000  0   -1253432.579    193706.148   6759933.097
10 0 59326  13302.000000  0    -509377.617    732194.028   6819695.753
10 0 59326  13422.000000  0     252761.303   1244727.688   6759638.566
10 0 59326  13542.000000  0    1019154.128   1722168.576   6580810.938
10 0 59326  13662.000000  0    1775740.849   2156230.684   6286335.633
10 0 59326  13782.000000  0    2508488.444   2539624.289   5881357.398
10 0 59326  13902.000000  0    3203651.651   2866179.845   5372959.511
10 0 59326  14022.000000  0    3848034.126   3130949.918   4770045.985
10 0 59326  14142.000000  0    4429242.008   3330286.480   4083190.309
10 0 59326  14262.000000  0    4935928.006   3461892.243   3324456.498
10 0 59326  14382.000000  0    5358022.511   3524845.748   2507187.751
10 0 59326  14502.000000  0    5686939.373   3519595.942   1645769.651
10 0 59326  14622.000000  0    5915756.075   3447929.950    755372.923
10 0 59326  14742.000000  0    6039362.397   3312912.544   -148321.471
10 0 59326  14862.000000  0    6054572.546   3118798.370  -1049407.343
10 0 59326  14982.000000  0    5960198.901   2870919.680  -1932041.823
10 0 59326  15102.000000  0    5757084.657   2575553.975  -2780730.877
10 0 59326  15222.000000  0    5448096.508   2239774.161  -3580606.813
10 0 59326  15342.000000  0    5038077.636   1871284.314  -4317691.212
10 0 59326  15462.000000  0    4533761.193   1478245.804  -4979138.944
10 0 59326  15582.000000  0    3943647.884   1069098.935  -5553455.487
10 0 59326  15702.000000  0    3277853.605    652384.843  -6030687.939
99
